[
    {
        "Altitude(m)": 605459.0175964406,
        "Argument of Periapsis(deg)": 0.0,
        "Eccentricity": 0.0,
        "Inclination(deg)": 60.0,
        "Latitude(deg)": 27.98817763145348,
        "Longitude(deg)": -142.20136994551422,
        "Mean Anomaly(deg)": 32.72730000000001,
        "RAAN(deg)": 300.0,
        "Satellite Name": "Test1 1322",
        "Satellite Number": 1322,
        "Semi-Major Axis(m)": 6980739.136638005,
        "Time(s)": 0
    },
    {
        "Altitude(m)": 605535.8083148937,
        "Argument of Periapsis(deg)": 0.00010418945913296404,
        "Eccentricity": 0.0,
        "Inclination(deg)": 60.0,
        "Latitude(deg)": 28.501306608692147,
        "Longitude(deg)": -141.84442400749262,
        "Mean Anomaly(deg)": 33.34740614546182,
        "RAAN(deg)": 299.99957995086027,
        "Satellite Name": "Test1 1322",
        "Satellite Number": 1322,
        "Semi-Major Axis(m)": 6980739.136638005,
        "Time(s)": 10
    }
]